SL-3 R/B                
1 13403U 82079B   25332.16548383  .00007021  00000+0  29166-3 0  9996
2 13403  81.1463 312.8387 0026420 146.0341 214.2590 15.23344386362239
SL-14 R/B               
1 13553U 82092B   25332.15977586  .00000647  00000+0  70198-4 0  9996
2 13553  82.5691 236.3458 0018821 279.2085 241.3889 14.86532254313848
SL-3 R/B                
1 13819U 83010B   25332.18251992  .00015017  00000+0  33911-3 0  9999
2 13819  81.1027 126.3799 0017878  41.5210 318.7387 15.42898385342272
SL-3 R/B                
1 14208U 83075B   25332.12853806  .00011693  00000+0  33658-3 0  9993
2 14208  97.6110 328.1266 0021262 229.5699 130.3690 15.35708141314559
COSMOS 1536             
1 14699U 84013A   25332.08327490  .00007363  00000+0  31775-3 0  9997
2 14699  82.5461 208.6952 0013237 283.3527  76.6233 15.22284443257157
SL-14 R/B               
1 14820U 84027B   25332.07685045  .00000607  00000+0  66801-4 0  9993
2 14820  82.5412 340.3086 0016804 313.6928  46.2895 14.85850232232542
SL-8 R/B                
1 15483U 85006B   25332.09099771  .00000356  00000+0  12689-3 0  9999
2 15483  74.0457  88.0847 0018058  24.5482 148.5094 14.37707542139422
SL-12 R/B(2)            
1 15772U 85042D   25332.17417237  .00000209  00000+0  11559-3 0  9992
2 15772  71.1080 302.1914 0037667 282.8270  87.9709 14.21944683 99964
SL-14 R/B               
1 15945U 85069B   25332.15981816  .00000720  00000+0  78779-4 0  9996
2 15945  82.5251 120.4094 0019225 164.4347 195.7465 14.86296781157751
SL-16 R/B               
1 16182U 85097B   25332.08366205 -.00000071  00000+0 -11496-4 0  9996
2 16182  71.0038 354.4596 0005837  34.9366 344.2431 14.16582592 72844
SL-14 R/B               
1 16496U 86006B   25332.09428083  .00000831  00000+0  86191-4 0  9995
2 16496  82.5271 355.3326 0075288 249.0710 110.2437 14.86641183134113
COSMOS 1743             
1 16719U 86034A   25332.07917293  .00027904  00000+0  47698-3 0  9996
2 16719  82.5358 179.8061 0005300 319.3522  40.7333 15.51118909164463
