CCSDS_OMM_VERS = 2.0
CREATION_DATE  = 
ORIGINATOR     = 

OBJECT_NAME    = SL-3 R/B
OBJECT_ID      = 1982-079B
CENTER_NAME    = EARTH
REF_FRAME      = TEME
TIME_SYSTEM    = UTC
MEAN_ELEMENT_THEORY = SGP/SGP4

EPOCH          = 2025-11-28T03:58:17.802912
MEAN_MOTION    = 15.23344386
ECCENTRICITY   = .002642
INCLINATION    = 81.1463
RA_OF_ASC_NODE = 312.8387
ARG_OF_PERICENTER = 146.0341
MEAN_ANOMALY   = 214.2590

EPHEMERIS_TYPE = 0
CLASSIFICATION_TYPE = U
NORAD_CAT_ID   = 13403
ELEMENT_SET_NO = 999
REV_AT_EPOCH   = 36223
BSTAR          = .29166E-3
MEAN_MOTION_DOT = .7021E-4
MEAN_MOTION_DDOT = 0

CCSDS_OMM_VERS = 2.0
CREATION_DATE  = 
ORIGINATOR     = 

OBJECT_NAME    = SL-14 R/B
OBJECT_ID      = 1982-092B
CENTER_NAME    = EARTH
REF_FRAME      = TEME
TIME_SYSTEM    = UTC
MEAN_ELEMENT_THEORY = SGP/SGP4

EPOCH          = 2025-11-28T03:50:04.634304
MEAN_MOTION    = 14.86532254
ECCENTRICITY   = .0018821
INCLINATION    = 82.5691
RA_OF_ASC_NODE = 236.3458
ARG_OF_PERICENTER = 279.2085
MEAN_ANOMALY   = 241.3889

EPHEMERIS_TYPE = 0
CLASSIFICATION_TYPE = U
NORAD_CAT_ID   = 13553
ELEMENT_SET_NO = 999
REV_AT_EPOCH   = 31384
BSTAR          = .70198E-4
MEAN_MOTION_DOT = .647E-5
MEAN_MOTION_DDOT = 0

CCSDS_OMM_VERS = 2.0
CREATION_DATE  = 
ORIGINATOR     = 

OBJECT_NAME    = SL-3 R/B
OBJECT_ID      = 1983-010B
CENTER_NAME    = EARTH
REF_FRAME      = TEME
TIME_SYSTEM    = UTC
MEAN_ELEMENT_THEORY = SGP/SGP4

EPOCH          = 2025-11-28T04:22:49.721088
MEAN_MOTION    = 15.42898385
ECCENTRICITY   = .0017878
INCLINATION    = 81.1027
RA_OF_ASC_NODE = 126.3799
ARG_OF_PERICENTER = 41.5210
MEAN_ANOMALY   = 318.7387

EPHEMERIS_TYPE = 0
CLASSIFICATION_TYPE = U
NORAD_CAT_ID   = 13819
ELEMENT_SET_NO = 999
REV_AT_EPOCH   = 34227
BSTAR          = .33911E-3
MEAN_MOTION_DOT = .15017E-3
MEAN_MOTION_DDOT = 0

CCSDS_OMM_VERS = 2.0
CREATION_DATE  = 
ORIGINATOR     = 

OBJECT_NAME    = SL-3 R/B
OBJECT_ID      = 1983-075B
CENTER_NAME    = EARTH
REF_FRAME      = TEME
TIME_SYSTEM    = UTC
MEAN_ELEMENT_THEORY = SGP/SGP4

EPOCH          = 2025-11-28T03:05:05.688384
MEAN_MOTION    = 15.35708141
ECCENTRICITY   = .0021262
INCLINATION    = 97.6110
RA_OF_ASC_NODE = 328.1266
ARG_OF_PERICENTER = 229.5699
MEAN_ANOMALY   = 130.3690

EPHEMERIS_TYPE = 0
CLASSIFICATION_TYPE = U
NORAD_CAT_ID   = 14208
ELEMENT_SET_NO = 999
REV_AT_EPOCH   = 31455
BSTAR          = .33658E-3
MEAN_MOTION_DOT = .11693E-3
MEAN_MOTION_DDOT = 0

CCSDS_OMM_VERS = 2.0
CREATION_DATE  = 
ORIGINATOR     = 

OBJECT_NAME    = COSMOS 1536
OBJECT_ID      = 1984-013A
CENTER_NAME    = EARTH
REF_FRAME      = TEME
TIME_SYSTEM    = UTC
MEAN_ELEMENT_THEORY = SGP/SGP4

EPOCH          = 2025-11-28T01:59:54.951360
MEAN_MOTION    = 15.22284443
ECCENTRICITY   = .0013237
INCLINATION    = 82.5461
RA_OF_ASC_NODE = 208.6952
ARG_OF_PERICENTER = 283.3527
MEAN_ANOMALY   = 76.6233

EPHEMERIS_TYPE = 0
CLASSIFICATION_TYPE = U
NORAD_CAT_ID   = 14699
ELEMENT_SET_NO = 999
REV_AT_EPOCH   = 25715
BSTAR          = .31775E-3
MEAN_MOTION_DOT = .7363E-4
MEAN_MOTION_DDOT = 0

CCSDS_OMM_VERS = 2.0
CREATION_DATE  = 
ORIGINATOR     = 

OBJECT_NAME    = SL-14 R/B
OBJECT_ID      = 1984-027B
CENTER_NAME    = EARTH
REF_FRAME      = TEME
TIME_SYSTEM    = UTC
MEAN_ELEMENT_THEORY = SGP/SGP4

EPOCH          = 2025-11-28T01:50:39.878880
MEAN_MOTION    = 14.85850232
ECCENTRICITY   = .0016804
INCLINATION    = 82.5412
RA_OF_ASC_NODE = 340.3086
ARG_OF_PERICENTER = 313.6928
MEAN_ANOMALY   = 46.2895

EPHEMERIS_TYPE = 0
CLASSIFICATION_TYPE = U
NORAD_CAT_ID   = 14820
ELEMENT_SET_NO = 999
REV_AT_EPOCH   = 23254
BSTAR          = .66801E-4
MEAN_MOTION_DOT = .607E-5
MEAN_MOTION_DDOT = 0

CCSDS_OMM_VERS = 2.0
CREATION_DATE  = 
ORIGINATOR     = 

OBJECT_NAME    = SL-8 R/B
OBJECT_ID      = 1985-006B
CENTER_NAME    = EARTH
REF_FRAME      = TEME
TIME_SYSTEM    = UTC
MEAN_ELEMENT_THEORY = SGP/SGP4

EPOCH          = 2025-11-28T02:11:02.202144
MEAN_MOTION    = 14.37707542
ECCENTRICITY   = .0018058
INCLINATION    = 74.0457
RA_OF_ASC_NODE = 88.0847
ARG_OF_PERICENTER = 24.5482
MEAN_ANOMALY   = 148.5094

EPHEMERIS_TYPE = 0
CLASSIFICATION_TYPE = U
NORAD_CAT_ID   = 15483
ELEMENT_SET_NO = 999
REV_AT_EPOCH   = 13942
BSTAR          = .12689E-3
MEAN_MOTION_DOT = .356E-5
MEAN_MOTION_DDOT = 0

CCSDS_OMM_VERS = 2.0
CREATION_DATE  = 
ORIGINATOR     = 

OBJECT_NAME    = SL-12 R/B(2)
OBJECT_ID      = 1985-042D
CENTER_NAME    = EARTH
REF_FRAME      = TEME
TIME_SYSTEM    = UTC
MEAN_ELEMENT_THEORY = SGP/SGP4

EPOCH          = 2025-11-28T04:10:48.492768
MEAN_MOTION    = 14.21944683
ECCENTRICITY   = .0037667
INCLINATION    = 71.1080
RA_OF_ASC_NODE = 302.1914
ARG_OF_PERICENTER = 282.8270
MEAN_ANOMALY   = 87.9709

EPHEMERIS_TYPE = 0
CLASSIFICATION_TYPE = U
NORAD_CAT_ID   = 15772
ELEMENT_SET_NO = 999
REV_AT_EPOCH   = 9996
BSTAR          = .11559E-3
MEAN_MOTION_DOT = .209E-5
MEAN_MOTION_DDOT = 0

CCSDS_OMM_VERS = 2.0
CREATION_DATE  = 
ORIGINATOR     = 

OBJECT_NAME    = SL-14 R/B
OBJECT_ID      = 1985-069B
CENTER_NAME    = EARTH
REF_FRAME      = TEME
TIME_SYSTEM    = UTC
MEAN_ELEMENT_THEORY = SGP/SGP4

EPOCH          = 2025-11-28T03:50:08.289024
MEAN_MOTION    = 14.86296781
ECCENTRICITY   = .0019225
INCLINATION    = 82.5251
RA_OF_ASC_NODE = 120.4094
ARG_OF_PERICENTER = 164.4347
MEAN_ANOMALY   = 195.7465

EPHEMERIS_TYPE = 0
CLASSIFICATION_TYPE = U
NORAD_CAT_ID   = 15945
ELEMENT_SET_NO = 999
REV_AT_EPOCH   = 15775
BSTAR          = .78779E-4
MEAN_MOTION_DOT = .72E-5
MEAN_MOTION_DDOT = 0

CCSDS_OMM_VERS = 2.0
CREATION_DATE  = 
ORIGINATOR     = 

OBJECT_NAME    = SL-16 R/B
OBJECT_ID      = 1985-097B
CENTER_NAME    = EARTH
REF_FRAME      = TEME
TIME_SYSTEM    = UTC
MEAN_ELEMENT_THEORY = SGP/SGP4

EPOCH          = 2025-11-28T02:00:28.401120
MEAN_MOTION    = 14.16582592
ECCENTRICITY   = .0005837
INCLINATION    = 71.0038
RA_OF_ASC_NODE = 354.4596
ARG_OF_PERICENTER = 34.9366
MEAN_ANOMALY   = 344.2431

EPHEMERIS_TYPE = 0
CLASSIFICATION_TYPE = U
NORAD_CAT_ID   = 16182
ELEMENT_SET_NO = 999
REV_AT_EPOCH   = 7284
BSTAR          = -.11496E-4
MEAN_MOTION_DOT = -.71E-6
MEAN_MOTION_DDOT = 0

CCSDS_OMM_VERS = 2.0
CREATION_DATE  = 
ORIGINATOR     = 

OBJECT_NAME    = SL-14 R/B
OBJECT_ID      = 1986-006B
CENTER_NAME    = EARTH
REF_FRAME      = TEME
TIME_SYSTEM    = UTC
MEAN_ELEMENT_THEORY = SGP/SGP4

EPOCH          = 2025-11-28T02:15:45.863712
MEAN_MOTION    = 14.86641183
ECCENTRICITY   = .0075288
INCLINATION    = 82.5271
RA_OF_ASC_NODE = 355.3326
ARG_OF_PERICENTER = 249.0710
MEAN_ANOMALY   = 110.2437

EPHEMERIS_TYPE = 0
CLASSIFICATION_TYPE = U
NORAD_CAT_ID   = 16496
ELEMENT_SET_NO = 999
REV_AT_EPOCH   = 13411
BSTAR          = .86191E-4
MEAN_MOTION_DOT = .831E-5
MEAN_MOTION_DDOT = 0

CCSDS_OMM_VERS = 2.0
CREATION_DATE  = 
ORIGINATOR     = 

OBJECT_NAME    = COSMOS 1743
OBJECT_ID      = 1986-034A
CENTER_NAME    = EARTH
REF_FRAME      = TEME
TIME_SYSTEM    = UTC
MEAN_ELEMENT_THEORY = SGP/SGP4

EPOCH          = 2025-11-28T01:54:00.541152
MEAN_MOTION    = 15.51118909
ECCENTRICITY   = .00053
INCLINATION    = 82.5358
RA_OF_ASC_NODE = 179.8061
ARG_OF_PERICENTER = 319.3522
MEAN_ANOMALY   = 40.7333

EPHEMERIS_TYPE = 0
CLASSIFICATION_TYPE = U
NORAD_CAT_ID   = 16719
ELEMENT_SET_NO = 999
REV_AT_EPOCH   = 16446
BSTAR          = .47698E-3
MEAN_MOTION_DOT = .27904E-3
MEAN_MOTION_DDOT = 0

